{"fetched_at":"2026-07-10T18:07:55.353Z","source":"https://celestrak.org/NORAD/elements/gp.php?GROUP=spire&FORMAT=JSON","constellation":"spire","records":[{"OBJECT_NAME":"LEMUR-2-VALHALLA","OBJECT_ID":"2024-022B","EPOCH":"2026-07-09T19:36:16.171776","CLASSIFICATION_TYPE":"U","MEAN_MOTION":15.40375714,"ECCENTRICITY":0.00098007,"INCLINATION":97.4095,"RA_OF_ASC_NODE":41.0892,"ARG_OF_PERICENTER":41.9316,"MEAN_ANOMALY":318.2679,"EPHEMERIS_TYPE":0,"NORAD_CAT_ID":58900,"ELEMENT_SET_NO":999,"REV_AT_EPOCH":13575,"BSTAR":0.00029655782,"MEAN_MOTION_DOT":0.00011917,"MEAN_MOTION_DDOT":0},{"OBJECT_NAME":"LEMUR-2-CAEL","OBJECT_ID":"2024-022E","EPOCH":"2026-07-09T13:08:31.439904","CLASSIFICATION_TYPE":"U","MEAN_MOTION":15.41725396,"ECCENTRICITY":0.00077567,"INCLINATION":97.4076,"RA_OF_ASC_NODE":41.7924,"ARG_OF_PERICENTER":28.9089,"MEAN_ANOMALY":331.2586,"EPHEMERIS_TYPE":0,"NORAD_CAT_ID":58903,"ELEMENT_SET_NO":999,"REV_AT_EPOCH":13578,"BSTAR":0.00031637064,"MEAN_MOTION_DOT":0.00013295,"MEAN_MOTION_DDOT":0},{"OBJECT_NAME":"LEMUR-2-JOHNNYTRUONG","OBJECT_ID":"2024-043BA","EPOCH":"2026-07-09T09:21:06.778656","CLASSIFICATION_TYPE":"U","MEAN_MOTION":15.62219537,"ECCENTRICITY":0.00043473,"INCLINATION":97.5385,"RA_OF_ASC_NODE":343.4983,"ARG_OF_PERICENTER":109.9411,"MEAN_ANOMALY":250.2315,"EPHEMERIS_TYPE":0,"NORAD_CAT_ID":59146,"ELEMENT_SET_NO":999,"REV_AT_EPOCH":13150,"BSTAR":0.0003921649,"MEAN_MOTION_DOT":0.00034473,"MEAN_MOTION_DDOT":0},{"OBJECT_NAME":"LEMUR-2-TOMATOKECHUP","OBJECT_ID":"2024-149D","EPOCH":"2026-07-10T03:57:48.083904","CLASSIFICATION_TYPE":"U","MEAN_MOTION":15.36515487,"ECCENTRICITY":0.00030486,"INCLINATION":97.3795,"RA_OF_ASC_NODE":273.2768,"ARG_OF_PERICENTER":131.796,"MEAN_ANOMALY":228.3545,"EPHEMERIS_TYPE":0,"NORAD_CAT_ID":60471,"ELEMENT_SET_NO":999,"REV_AT_EPOCH":10569,"BSTAR":0.00023403615,"MEAN_MOTION_DOT":0.00008259,"MEAN_MOTION_DDOT":0},{"OBJECT_NAME":"LEMUR-2-STELLA","OBJECT_ID":"2024-149BT","EPOCH":"2026-07-09T01:15:57.192192","CLASSIFICATION_TYPE":"U","MEAN_MOTION":15.12285468,"ECCENTRICITY":0.00010331,"INCLINATION":97.6729,"RA_OF_ASC_NODE":272.6092,"ARG_OF_PERICENTER":111.443,"MEAN_ANOMALY":248.6911,"EPHEMERIS_TYPE":0,"NORAD_CAT_ID":60533,"ELEMENT_SET_NO":999,"REV_AT_EPOCH":10380,"BSTAR":0.00046022355,"MEAN_MOTION_DOT":0.00007901,"MEAN_MOTION_DDOT":0},{"OBJECT_NAME":"LEMUR-2-MARHISYAM","OBJECT_ID":"2024-149BW","EPOCH":"2026-07-10T03:59:47.651136","CLASSIFICATION_TYPE":"U","MEAN_MOTION":15.11717897,"ECCENTRICITY":0.00028183,"INCLINATION":97.688,"RA_OF_ASC_NODE":274.2005,"ARG_OF_PERICENTER":77.1938,"MEAN_ANOMALY":282.9606,"EPHEMERIS_TYPE":0,"NORAD_CAT_ID":60536,"ELEMENT_SET_NO":999,"REV_AT_EPOCH":10395,"BSTAR":0.00046249155,"MEAN_MOTION_DOT":0.00007816,"MEAN_MOTION_DDOT":0},{"OBJECT_NAME":"LEMUR-2-AHMED-ASRAR","OBJECT_ID":"2024-149DN","EPOCH":"2026-07-10T04:16:27.563520","CLASSIFICATION_TYPE":"U","MEAN_MOTION":15.1323887,"ECCENTRICITY":0.00007304,"INCLINATION":97.7004,"RA_OF_ASC_NODE":276.3951,"ARG_OF_PERICENTER":234.1758,"MEAN_ANOMALY":125.9404,"EPHEMERIS_TYPE":0,"NORAD_CAT_ID":60576,"ELEMENT_SET_NO":999,"REV_AT_EPOCH":10404,"BSTAR":0.0004994243,"MEAN_MOTION_DOT":0.00008812,"MEAN_MOTION_DDOT":0},{"OBJECT_NAME":"LEMUR-2-LLOYD","OBJECT_ID":"2024-149DP","EPOCH":"2026-07-09T01:13:20.078112","CLASSIFICATION_TYPE":"U","MEAN_MOTION":15.09671321,"ECCENTRICITY":0.00048155,"INCLINATION":97.6737,"RA_OF_ASC_NODE":271.1966,"ARG_OF_PERICENTER":85.7812,"MEAN_ANOMALY":274.3967,"EPHEMERIS_TYPE":0,"NORAD_CAT_ID":60577,"ELEMENT_SET_NO":999,"REV_AT_EPOCH":10369,"BSTAR":0.00043277782,"MEAN_MOTION_DOT":0.00006907,"MEAN_MOTION_DDOT":0},{"OBJECT_NAME":"LEMUR-2-SQUIRRELCOMM","OBJECT_ID":"2024-149DQ","EPOCH":"2026-07-08T00:49:41.985408","CLASSIFICATION_TYPE":"U","MEAN_MOTION":15.07397331,"ECCENTRICITY":0.00047468,"INCLINATION":97.6707,"RA_OF_ASC_NODE":269.8822,"ARG_OF_PERICENTER":354.4134,"MEAN_ANOMALY":5.7039,"EPHEMERIS_TYPE":0,"NORAD_CAT_ID":60578,"ELEMENT_SET_NO":999,"REV_AT_EPOCH":10354,"BSTAR":0.00024740327,"MEAN_MOTION_DOT":0.00003681,"MEAN_MOTION_DDOT":0},{"OBJECT_NAME":"LEMUR-2-SIERRINI","OBJECT_ID":"2024-149DR","EPOCH":"2026-07-09T11:11:26.207520","CLASSIFICATION_TYPE":"U","MEAN_MOTION":15.11432329,"ECCENTRICITY":0.00064548,"INCLINATION":97.6834,"RA_OF_ASC_NODE":273.1629,"ARG_OF_PERICENTER":105.636,"MEAN_ANOMALY":254.5582,"EPHEMERIS_TYPE":0,"NORAD_CAT_ID":60579,"ELEMENT_SET_NO":999,"REV_AT_EPOCH":10382,"BSTAR":0.00046373773,"MEAN_MOTION_DOT":0.00007778,"MEAN_MOTION_DDOT":0},{"OBJECT_NAME":"LEMUR-2-WILSON","OBJECT_ID":"2025-009CP","EPOCH":"2026-07-09T04:17:57.532704","CLASSIFICATION_TYPE":"U","MEAN_MOTION":14.95266051,"ECCENTRICITY":0.00024383,"INCLINATION":97.7024,"RA_OF_ASC_NODE":268.2582,"ARG_OF_PERICENTER":357.7647,"MEAN_ANOMALY":2.3562,"EPHEMERIS_TYPE":0,"NORAD_CAT_ID":62694,"ELEMENT_SET_NO":999,"REV_AT_EPOCH":8064,"BSTAR":0.0001489224,"MEAN_MOTION_DOT":0.00001582,"MEAN_MOTION_DDOT":0},{"OBJECT_NAME":"LEMUR-2-STAR-FOX","OBJECT_ID":"2025-009CR","EPOCH":"2026-07-10T04:47:35.175552","CLASSIFICATION_TYPE":"U","MEAN_MOTION":15.02805279,"ECCENTRICITY":0.00029409,"INCLINATION":97.6923,"RA_OF_ASC_NODE":272.6444,"ARG_OF_PERICENTER":60.6967,"MEAN_ANOMALY":299.4551,"EPHEMERIS_TYPE":0,"NORAD_CAT_ID":62696,"ELEMENT_SET_NO":999,"REV_AT_EPOCH":8101,"BSTAR":0.00032139604,"MEAN_MOTION_DOT":0.00004242,"MEAN_MOTION_DDOT":0},{"OBJECT_NAME":"LEMUR-2-ARIANNA","OBJECT_ID":"2025-009CU","EPOCH":"2026-07-10T04:45:22.887648","CLASSIFICATION_TYPE":"U","MEAN_MOTION":15.02805498,"ECCENTRICITY":0.00031917,"INCLINATION":97.686,"RA_OF_ASC_NODE":272.3989,"ARG_OF_PERICENTER":65.7714,"MEAN_ANOMALY":294.3844,"EPHEMERIS_TYPE":0,"NORAD_CAT_ID":62699,"ELEMENT_SET_NO":999,"REV_AT_EPOCH":8101,"BSTAR":0.00033829628,"MEAN_MOTION_DOT":0.00004468,"MEAN_MOTION_DDOT":0},{"OBJECT_NAME":"LEMUR-2-ALISIA","OBJECT_ID":"2025-009DB","EPOCH":"2026-07-10T04:07:09.263136","CLASSIFICATION_TYPE":"U","MEAN_MOTION":15.03127226,"ECCENTRICITY":0.0003689,"INCLINATION":97.6965,"RA_OF_ASC_NODE":273.1869,"ARG_OF_PERICENTER":145.0737,"MEAN_ANOMALY":215.0731,"EPHEMERIS_TYPE":0,"NORAD_CAT_ID":62706,"ELEMENT_SET_NO":999,"REV_AT_EPOCH":10361,"BSTAR":0.00044972112,"MEAN_MOTION_DOT":0.00006013,"MEAN_MOTION_DDOT":0},{"OBJECT_NAME":"LEMUR-2-ROUNDTRIPPER","OBJECT_ID":"2025-009DG","EPOCH":"2026-07-10T04:19:41.962656","CLASSIFICATION_TYPE":"U","MEAN_MOTION":15.04178168,"ECCENTRICITY":0.00043796,"INCLINATION":97.7237,"RA_OF_ASC_NODE":273.8296,"ARG_OF_PERICENTER":74.9945,"MEAN_ANOMALY":285.1765,"EPHEMERIS_TYPE":0,"NORAD_CAT_ID":62711,"ELEMENT_SET_NO":999,"REV_AT_EPOCH":8108,"BSTAR":0.00049345183,"MEAN_MOTION_DOT":0.00006792,"MEAN_MOTION_DDOT":0},{"OBJECT_NAME":"LEMUR-2-MYNAMEISJEFF","OBJECT_ID":"2025-009DH","EPOCH":"2026-07-10T01:05:53.473920","CLASSIFICATION_TYPE":"U","MEAN_MOTION":15.04168528,"ECCENTRICITY":0.0003672,"INCLINATION":97.7289,"RA_OF_ASC_NODE":274.09,"ARG_OF_PERICENTER":109.4233,"MEAN_ANOMALY":250.7389,"EPHEMERIS_TYPE":0,"NORAD_CAT_ID":62712,"ELEMENT_SET_NO":999,"REV_AT_EPOCH":8106,"BSTAR":0.00048907697,"MEAN_MOTION_DOT":0.00006729,"MEAN_MOTION_DDOT":0}]}
